     3.03           N: GNSS NAV DATA    M: MIXED            RINEX VERSION / TYPE
GR25 V4.20          AGG-DICEA           20210708 235947 UTC PGM / RUN BY / DATE
GAL    5.4500D+01  2.0313D-01  1.1963D-02                   IONOSPHERIC CORR
GPSA   4.6566D-09  1.4901D-08 -5.9605D-08 -1.1921D-07       IONOSPHERIC CORR
GPSB   8.1920D+04  8.1920D+04 -6.5536D+04 -5.2429D+05       IONOSPHERIC CORR
BDSA   9.3132D-09  3.7253D-08 -3.5763D-07  5.3644D-07 W 02  IONOSPHERIC CORR
BDSA   8.3819D-09  2.2352D-08 -2.9802D-07  4.1723D-07 W 05  IONOSPHERIC CORR
BDSA   8.3819D-09  2.2352D-08 -2.9802D-07  4.1723D-07 Q 06  IONOSPHERIC CORR
BDSA   8.3819D-09  2.2352D-08 -2.9802D-07  4.1723D-07 W 07  IONOSPHERIC CORR
BDSA   8.3819D-09  3.7253D-08 -3.5763D-07  5.3644D-07 I 08  IONOSPHERIC CORR
BDSA   8.3819D-09  2.2352D-08 -2.9802D-07  4.1723D-07 U 09  IONOSPHERIC CORR
BDSA   8.3819D-09  2.2352D-08 -2.9802D-07  4.1723D-07 W 10  IONOSPHERIC CORR
BDSA   8.3819D-09  5.2154D-08 -4.1723D-07  5.9605D-07 N 11  IONOSPHERIC CORR
BDSA   8.3819D-09  2.2352D-08 -2.9802D-07  4.1723D-07 X 12  IONOSPHERIC CORR
BDSA   8.3819D-09  2.2352D-08 -2.9802D-07  4.1723D-07 M 13  IONOSPHERIC CORR
BDSA   8.3819D-09  2.2352D-08 -2.9802D-07  4.1723D-07 W 14  IONOSPHERIC CORR
BDSA   8.3819D-09  2.2352D-08 -2.9802D-07  4.1723D-07 Q 16  IONOSPHERIC CORR
BDSA   8.3819D-09  2.2352D-08 -2.9802D-07  4.1723D-07 O 19  IONOSPHERIC CORR
BDSA   8.3819D-09  2.2352D-08 -2.9802D-07  4.1723D-07 M 20  IONOSPHERIC CORR
BDSA   8.3819D-09  2.2352D-08 -2.9802D-07  4.1723D-07 U 21  IONOSPHERIC CORR
BDSA   8.3819D-09  2.2352D-08 -2.9802D-07  4.1723D-07 Q 22  IONOSPHERIC CORR
BDSA   8.3819D-09  2.2352D-08 -2.9802D-07  4.1723D-07 W 23  IONOSPHERIC CORR
BDSA   8.3819D-09  2.2352D-08 -2.9802D-07  4.1723D-07 W 24  IONOSPHERIC CORR
BDSA   8.3819D-09  2.2352D-08 -2.9802D-07  4.1723D-07 W 25  IONOSPHERIC CORR
BDSA   8.3819D-09  2.2352D-08 -2.9802D-07  4.1723D-07 W 26  IONOSPHERIC CORR
BDSA   8.3819D-09  2.2352D-08 -2.9802D-07  4.1723D-07 U 27  IONOSPHERIC CORR
BDSA   8.3819D-09  2.2352D-08 -2.9802D-07  4.1723D-07 U 28  IONOSPHERIC CORR
BDSA   8.3819D-09  2.2352D-08 -2.9802D-07  4.1723D-07 M 29  IONOSPHERIC CORR
BDSA   8.3819D-09  2.9802D-08 -2.9802D-07  4.7684D-07 K 30  IONOSPHERIC CORR
BDSB   1.1264D+05  2.4576D+05 -1.0486D+06  8.5197D+05 W 02  IONOSPHERIC CORR
BDSB   1.0650D+05  3.6045D+05 -1.3763D+06  9.1750D+05 W 05  IONOSPHERIC CORR
BDSB   1.0445D+05  3.4406D+05 -1.3107D+06  9.1750D+05 Q 06  IONOSPHERIC CORR
BDSB   1.0650D+05  3.6045D+05 -1.3763D+06  9.1750D+05 W 07  IONOSPHERIC CORR
BDSB   1.0445D+05  4.0960D+05 -1.6384D+06  1.1796D+06 I 08  IONOSPHERIC CORR
BDSB   1.0445D+05  3.7683D+05 -1.3763D+06  9.8304D+05 U 09  IONOSPHERIC CORR
BDSB   1.0650D+05  3.6045D+05 -1.3763D+06  9.1750D+05 W 10  IONOSPHERIC CORR
BDSB   1.0650D+05  3.1130D+05 -1.3107D+06  1.0486D+06 N 11  IONOSPHERIC CORR
BDSB   1.0650D+05  3.6045D+05 -1.3763D+06  9.1750D+05 X 12  IONOSPHERIC CORR
BDSB   1.0445D+05  4.0960D+05 -1.7039D+06  1.2452D+06 M 13  IONOSPHERIC CORR
BDSB   1.0650D+05  3.6045D+05 -1.3763D+06  9.1750D+05 W 14  IONOSPHERIC CORR
BDSB   1.0445D+05  3.4406D+05 -1.3107D+06  9.1750D+05 Q 16  IONOSPHERIC CORR
BDSB   1.0445D+05  3.7683D+05 -1.5073D+06  1.0486D+06 O 19  IONOSPHERIC CORR
BDSB   1.0445D+05  4.0960D+05 -1.7039D+06  1.2452D+06 M 20  IONOSPHERIC CORR
BDSB   1.0445D+05  3.7683D+05 -1.3763D+06  9.8304D+05 U 21  IONOSPHERIC CORR
BDSB   1.0445D+05  3.4406D+05 -1.3107D+06  9.1750D+05 Q 22  IONOSPHERIC CORR
BDSB   1.0650D+05  3.6045D+05 -1.3763D+06  9.1750D+05 W 23  IONOSPHERIC CORR
BDSB   1.0650D+05  3.6045D+05 -1.3763D+06  9.1750D+05 W 24  IONOSPHERIC CORR
BDSB   1.0650D+05  3.6045D+05 -1.3763D+06  9.1750D+05 W 25  IONOSPHERIC CORR
BDSB   1.0650D+05  3.6045D+05 -1.3763D+06  9.1750D+05 W 26  IONOSPHERIC CORR
BDSB   1.0445D+05  3.7683D+05 -1.3763D+06  9.8304D+05 U 27  IONOSPHERIC CORR
BDSB   1.0445D+05  3.7683D+05 -1.3763D+06  9.8304D+05 U 28  IONOSPHERIC CORR
BDSB   1.0445D+05  4.0960D+05 -1.7039D+06  1.2452D+06 M 29  IONOSPHERIC CORR
BDSB   1.0650D+05  4.2598D+05 -1.7695D+06  1.2452D+06 K 30  IONOSPHERIC CORR
GPUT -9.3132257462D-10-5.329070518D-15  61440 2166          TIME SYSTEM CORR
GLUT  1.9092112780D-08 0.000000000D+00      0    0          TIME SYSTEM CORR
GAUT  9.3132257462D-10 0.000000000D+00 345600 2165          TIME SYSTEM CORR
GPGA  1.7753336579D-09 0.000000000D+00 432000 2165          TIME SYSTEM CORR
BDUT -4.6566128731D-09-9.769962617D-15 421494  809          TIME SYSTEM CORR
    18    18  1929     7                                    LEAP SECONDS
                                                            END OF HEADER
E21 2021 07 09 20 10 00-6.753103225492D-04-2.103206497850D-12 0.000000000000D+00
     7.300000000000D+01 6.853125000000D+01 2.479746148523D-09 2.100180382611D+00
     3.268942236900D-06 1.037892652676D-04 1.172721385956D-05 5.440619421005D+03
     5.046000000000D+05 4.284083843231D-08-1.918143763073D-01 4.470348358154D-08
     9.773443515495D-01 9.603125000000D+01-2.295090826077D+00-5.103426863928D-09
    -4.796628370253D-10 5.130000000000D+02 2.165000000000D+03 0.000000000000D+00
     3.120000000000D+00 0.000000000000D+00 2.095475792885D-09 2.328306436539D-09
     5.052640000000D+05
E30 2021 07 09 20 10 00 2.797287830617D-03-3.069544618484D-11 0.000000000000D+00
     7.300000000000D+01 6.378125000000D+01 2.481174779460D-09 6.737705782548D-01
     3.010034561157D-06 1.817320007831D-04 1.223944127560D-05 5.440607791901D+03
     5.046000000000D+05-7.078051567078D-08-1.871800698069D-01-1.154839992523D-07
     9.752670780970D-01 8.609375000000D+01 7.492222927329D-01-5.047353099659D-09
    -6.221687729696D-10 2.580000000000D+02 2.165000000000D+03 0.000000000000D+00
     3.120000000000D+00 0.000000000000D+00 1.862645149231D-09 0.000000000000D+00
     5.053000000000D+05
E19 2021 07 09 20 10 00 3.227741690353D-04 9.507061804470D-12 0.000000000000D+00
     7.300000000000D+01 1.603125000000D+01 3.325495663100D-09 2.680656517338D+00
     8.530914783478D-07 2.620271407068D-04 8.735805749893D-06 5.440614858627D+03
     5.046000000000D+05 2.421438694000D-08-2.287120443152D+00 5.029141902924D-08
     9.607375863939D-01 1.518437500000D+02-1.459471126819D+00-5.463799017732D-09
     6.128826718805D-10 2.580000000000D+02 2.165000000000D+03 0.000000000000D+00
     3.120000000000D+00 0.000000000000D+00-3.492459654808D-09 0.000000000000D+00
     5.053000000000D+05
E21 2021 07 09 20 10 00-6.753097986802D-04-2.103206497850D-12 0.000000000000D+00
     7.300000000000D+01 6.853125000000D+01 2.479746148523D-09 2.100180382611D+00
     3.268942236900D-06 1.037892652676D-04 1.172721385956D-05 5.440619421005D+03
     5.046000000000D+05 4.284083843231D-08-1.918143763073D-01 4.470348358154D-08
     9.773443515495D-01 9.603125000000D+01-2.295090826077D+00-5.103426863928D-09
    -4.796628370253D-10 2.580000000000D+02 2.165000000000D+03 0.000000000000D+00
     3.120000000000D+00 0.000000000000D+00 2.095475792885D-09 0.000000000000D+00
     5.053000000000D+05
E27 2021 07 09 20 10 00-7.209309842438D-05-8.228084880102D-12 0.000000000000D+00
     7.300000000000D+01 5.840625000000D+01 2.430101223470D-09 1.960838159706D+00
     2.838671207428D-06 1.949709840119D-04 1.191720366478D-05 5.440615947723D+03
     5.046000000000D+05-9.499490261078D-08-1.918167681783D-01 1.136213541031D-07
     9.773176284249D-01 9.206250000000D+01-1.363693116526D+00-5.003779856087D-09
    -5.100212444320D-10 5.130000000000D+02 2.165000000000D+03 0.000000000000D+00
     3.120000000000D+00 0.000000000000D+00 2.328306436539D-09 2.561137080193D-09
     5.053540000000D+05
E27 2021 07 09 20 10 00-7.209263276309D-05-8.228084880102D-12 0.000000000000D+00
     7.300000000000D+01 5.840625000000D+01 2.430101223470D-09 1.960838159706D+00
     2.838671207428D-06 1.949709840119D-04 1.191720366478D-05 5.440615947723D+03
     5.046000000000D+05-9.499490261078D-08-1.918167681783D-01 1.136213541031D-07
     9.773176284249D-01 9.206250000000D+01-1.363693116526D+00-5.003779856087D-09
    -5.100212444320D-10 2.580000000000D+02 2.165000000000D+03 0.000000000000D+00
     3.120000000000D+00 0.000000000000D+00 2.328306436539D-09 0.000000000000D+00
     5.053500000000D+05
E04 2021 07 09 20 10 00-8.098596008494D-04-8.114398042380D-12 0.000000000000D+00
     7.300000000000D+01 1.240625000000D+01 3.425856986409D-09 1.599787938435D+00
     6.388872861862D-07 2.837895881385D-04 8.335337042809D-06 5.440619485855D+03
     5.046000000000D+05-1.117587089539D-08-2.287652398202D+00-4.284083843231D-08
     9.550571764335D-01 1.535625000000D+02-1.245013918067D+00-5.509872365443D-09
     5.710952169795D-10 2.580000000000D+02 2.165000000000D+03 0.000000000000D+00
     3.120000000000D+00 0.000000000000D+00-3.026798367500D-09 0.000000000000D+00
     5.054000000000D+05
G14 2021 07 09 22 00 00 5.117990076542D-05-8.981260180008D-12 0.000000000000D+00
     1.600000000000D+02 7.618750000000D+01 4.142672558940D-09-2.849992550246D+00
     4.062429070473D-06 8.881145622581D-04 1.055002212524D-05 5.153759778976D+03
     5.112000000000D+05 2.048909664154D-08 3.192107583522D-02 1.117587089539D-08
     9.569233844542D-01 1.736562500000D+02 2.922953417017D+00-7.723178844256D-09
    -2.589393572922D-10 1.000000000000D+00 2.165000000000D+03 0.000000000000D+00
     2.000000000000D+00 0.000000000000D+00-7.916241884232D-09 1.600000000000D+02
     5.056200000000D+05                   
G06 2021 07 09 21 59 44 3.782520070672D-05 5.343281372916D-12 0.000000000000D+00
     2.000000000000D+00-8.093750000000D+01 4.196246219070D-09-1.439201729740D+00
    -4.233792424202D-06 2.179987961426D-03 1.898035407066D-06 5.153537071228D+03
     5.111840000000D+05-8.009374141693D-08 2.084983554494D+00-3.911554813385D-08
     9.841158614043D-01 3.589375000000D+02-9.503682431092D-01-8.104980462112D-09
    -1.007184810433D-10 1.000000000000D+00 2.165000000000D+03 0.000000000000D+00
     2.000000000000D+00 0.000000000000D+00 4.190951585770D-09 2.000000000000D+00
     5.056200000000D+05                   
